[Satellite]
VERSION=1.1
NAME=CASSIOPE
NICKNAME=CASSIOPE
TLE1=1 39265U 13055A   20157.69437599  .00001523  00000-0  42636-4 0  9992
TLE2=2 39265  80.9661 326.7132 0660483 337.3349  19.9844 14.29393529346128
STATUS=0
